25943,GLOBALSTAR M057,1999,117.57,-1.0,-,52.0,Inactive,0,LEO,Kazakhstan,Globalstar,Unknown,Unknown,Unknown,1 25943U 99058A   25099.56458816 -.00000071  00000+0  20318-3 0  9997,2 25943  51.9974 182.9546 0002700 225.7740 134.2888 12.24816573158525,12.24816573,0.00027,LEO
25944,GLOBALSTAR M059,1999,120.0,-1.0,-,52.0,Inactive,0,LEO,Kazakhstan,Globalstar,Unknown,Unknown,Unknown,1 25944U 99058B   25099.56316575 -.00000051  00000+0  43380-3 0  9995,2 25944  52.0046  32.8201 0000440 125.7635  45.3856 11.99975986154551,11.99975986,4.4e-05,LEO
25945,GLOBALSTAR M056,1999,119.52,-1.0,-,52.0,Inactive,0,LEO,Kazakhstan,Globalstar,Unknown,Unknown,Unknown,1 25945U 99058C   25099.25033980 -.00000032  00000+0  64844-3 0  9995,2 25945  51.9990  37.3937 0001460  49.0238  99.1026 12.04778751154312,12.04778751,0.000146,LEO
25946,GLOBALSTAR M031,1999,118.42,-1.0,-,52.0,Inactive,0,LEO,Kazakhstan,Globalstar,Unknown,Unknown,Unknown,1 25946U 99058D   25099.52666507 -.00000079  00000+0  11464-3 0  9994,2 25946  51.9966 293.0872 0001937  61.5408 342.5892 12.16033184156193,12.16033184,0.0001937,LEO
25961,GLOBALSTAR M039,1999,114.08,-1.0,-,51.98,Inactive,0,LEO,Kazakhstan,Globalstar,Unknown,Unknown,Unknown,1 25961U 99062A   25099.43645441 -.00000035  00000+0  38624-3 0  9999,2 25961  51.9822 118.1167 0002735 191.4446 168.6358 12.62322764171532,12.62322764,0.0002735,LEO
25962,GLOBALSTAR M034,1999,122.09,-1.0,-,51.99,Inactive,0,LEO,Kazakhstan,Globalstar,Unknown,Unknown,Unknown,1 25962U 99062B   25099.54601590 -.00000074  00000+0  10663-3 0  9995,2 25962  51.9861 189.8154 0013811 269.3105 103.7556 11.79446431130294,11.79446431,0.0013811,LEO
25963,GLOBALSTAR M029,1999,120.01,-1.0,-,51.98,Inactive,0,LEO,Kazakhstan,Globalstar,Unknown,Unknown,Unknown,1 25963U 99062C   25099.44825870 -.00000055  00000+0  38974-3 0  9998,2 25963  51.9799 281.2306 0002202   2.6352  12.3017 11.99894412160877,11.99894412,0.0002202,LEO
25964,GLOBALSTAR M061,1999,122.37,-1.0,-,51.98,Inactive,0,LEO,Kazakhstan,Globalstar,Unknown,Unknown,Unknown,1 25964U 99062D   25099.51685160 -.00000066  00000+0  22586-3 0  9997,2 25964  51.9835  13.0130 0005629 191.2701 339.9445 11.76772991113091,11.76772991,0.0005629,LEO
